0 THOR ABLESTAR DEB
1 00470U 61015FG  13281.37803537  .00000455  00000-0  33457-3 0  3729
2 00470 066.2309 264.0141 0077957 231.7875 201.6065 14.03505375661427
0 THOR ABLESTAR DEB
1 00470U 61015FG  13282.44859037  .00000549  00000-0  39294-3 0  3734
2 00470 066.2309 261.2823 0077873 231.1850 210.6794 14.03507802661579
0 THOR ABLESTAR DEB
1 00470U 61015FG  13283.80163865  .00000506  00000-0  36600-3 0  3744
2 00470 066.2310 257.8296 0077722 230.4401 207.0626 14.03509378661768
0 THOR ABLESTAR DEB
1 00470U 61015FG  13286.36694683  .00000280  00000-0  22560-3 0  3766
2 00470 066.2312 251.2832 0077468 229.0113 208.5152 14.03513184662126
0 THOR ABLESTAR DEB
1 00470U 61015FG  13287.79166160  .00000309  00000-0  24405-3 0  3771
2 00470 066.2314 247.6475 0077362 228.2158 207.0349 14.03515372662328
0 THOR ABLESTAR DEB
1 00470U 61015FG  13289.15142285  .00000336  00000-0  26068-3 0  3783
2 00470 066.2316 244.1777 0077228 227.4517 237.3895 14.03516201662513
0 THOR ABLESTAR DEB
1 00470U 61015FG  13290.63831271  .00000468  00000-0  34280-3 0  3790
2 00470 066.2317 240.3837 0077091 226.6095 190.0921 14.03515961662729
0 THOR ABLESTAR DEB
1 00470U 61015FG  13291.70993337  .00000539  00000-0  38659-3 0  3806
2 00470 066.2316 237.6492 0077021 226.0081 204.5886 14.03515806662871
0 THOR ABLESTAR DEB
1 00470U 61015FG  13292.84231328  .00000586  00000-0  41585-3 0  3812
2 00470 066.2315 234.7596 0076913 225.3544 166.0949 14.03516788663039
0 THOR ABLESTAR DEB
1 00470U 61015FG  13294.13787091  .00000468  00000-0  34245-3 0  3824
2 00470 066.2315 231.4539 0076783 224.6306 232.0550 14.03518978663218
0 THOR ABLESTAR DEB
1 00470U 61015FG  13295.13798340  .00000395  00000-0  29729-3 0  3835
2 00470 066.2315 228.9019 0076701 224.0664 245.2532 14.03520899663359
